{"type": "FeatureCollection", "features": [{"type": "Feature", "geometry": {"type": "Point", "coordinates": [-76.80277, 42.079938]}, "properties": {"ParishUEID": "9153-1962", "Diocese": "Central New York", "Name": "Emmanuel Church", "City": "Elmira", "State": "New York", "County": "Chemung", "Address": "380 Pennsylvania Ave, Elmira, NY 14904", "Website": "https://emmanuelelmira.org/", "latitude": 42.07993768, "longitude": -76.80276965, "Address_Search": "Emmanuel Church, 380 Pennsylvania Ave, Elmira, NY 14904", "Avg_Attendance": 15.4, "Avg_Plate_Pledge": 26430.2, "2020_Attendance": 16.0, "2021_Attendance": 13.0, "2022_Attendance": 15.0, "2023_Attendance": 17.0, "2024_Attendance": 16.0, "2020_Plate_Pledge": "22,785", "2021_Plate_Pledge": "23,284", "2022_Plate_Pledge": "20,110", "2023_Plate_Pledge": "30,756", "2024_Plate_Pledge": "35,216"}}, {"type": "Feature", "geometry": {"type": "Point", "coordinates": [76.813849, 42.087919]}, "properties": {"ParishUEID": "6702-7961", "Diocese": "Central New York", "Name": "Grace Episcopal Church", "City": "Elmira", "State": "New York", "County": "Chemung", "Address": "375 W Church St, Elmira, NY 14901", "Website": "https://www.graceelmira.org/", "latitude": 42.0879186, "longitude": 76.81384916, "Address_Search": "Grace Episcopal Church, 375 W Church St, Elmira, NY 14901", "Avg_Attendance": 21.6, "Avg_Plate_Pledge": 66868.2, "2020_Attendance": 31.0, "2021_Attendance": 18.0, "2022_Attendance": 20.0, "2023_Attendance": 21.0, "2024_Attendance": 18.0, "2020_Plate_Pledge": "60,226", "2021_Plate_Pledge": "65,744", "2022_Plate_Pledge": "77,251", "2023_Plate_Pledge": "60,776", "2024_Plate_Pledge": "70,344"}}, {"type": "Feature", "geometry": {"type": "Point", "coordinates": [-76.819444, 42.164762]}, "properties": {"ParishUEID": "8386-5543", "Diocese": "Central New York", "Name": "St Matthew's Episcopal Church", "City": "Horseheads", "State": "New York", "County": "Chemung", "Address": "408 S Main St, Horseheads, NY 14845", "Website": "https://stmatthewshorseheads.org/", "latitude": 42.16476185, "longitude": -76.819444, "Address_Search": "St Matthew's Episcopal Church, 408 S Main St, Horseheads, NY 14845", "Avg_Attendance": 29.6, "Avg_Plate_Pledge": 63038.6, "2020_Attendance": 35.0, "2021_Attendance": 32.0, "2022_Attendance": 29.0, "2023_Attendance": 26.0, "2024_Attendance": 26.0, "2020_Plate_Pledge": "57,164", "2021_Plate_Pledge": "67,217", "2022_Plate_Pledge": "68,278", "2023_Plate_Pledge": "60,993", "2024_Plate_Pledge": "61,541"}}, {"type": "Feature", "geometry": {"type": "Point", "coordinates": [-76.26477, 42.102785]}, "properties": {"ParishUEID": "5302-9955", "Diocese": "Central New York", "Name": "St Paul's Episcopal Church", "City": "Owego", "State": "New York", "County": "Tioga", "Address": "117 Main St, Owego, NY 13827", "Website": "https://stpaulsowego.org/", "latitude": 42.1027846, "longitude": -76.26476993, "Address_Search": "St Paul's Episcopal Church, 117 Main St, Owego, NY 13827", "Avg_Attendance": 44.4, "Avg_Plate_Pledge": 113735.6, "2020_Attendance": 23.0, "2021_Attendance": 52.0, "2022_Attendance": 49.0, "2023_Attendance": 49.0, "2024_Attendance": 49.0, "2020_Plate_Pledge": "94,181", "2021_Plate_Pledge": "95,183", "2022_Plate_Pledge": "123,188", "2023_Plate_Pledge": "119,628", "2024_Plate_Pledge": "136,498"}}, {"type": "Feature", "geometry": {"type": "Point", "coordinates": [-76.050691, 42.100286]}, "properties": {"ParishUEID": "6270-9837", "Diocese": "Central New York", "Name": "St Paul's Episcopal Church", "City": "Endicott", "State": "New York", "County": "Broome", "Address": "200 Jefferson Ave, Endicott, NY 13760", "Website": "https://stpaulsendicott.org/", "latitude": 42.10028566, "longitude": -76.05069051, "Address_Search": "St Pauls Episcopal Church, 200 Jefferson Ave, Endicott, NY 13760", "Avg_Attendance": 80.8, "Avg_Plate_Pledge": 183441.6, "2020_Attendance": 102.0, "2021_Attendance": 61.0, "2022_Attendance": 74.0, "2023_Attendance": 86.0, "2024_Attendance": 81.0, "2020_Plate_Pledge": "168,296", "2021_Plate_Pledge": "181,517", "2022_Plate_Pledge": "169,764", "2023_Plate_Pledge": "194,183", "2024_Plate_Pledge": "203,448"}}, {"type": "Feature", "geometry": {"type": "Point", "coordinates": [-75.966101, 42.116005]}, "properties": {"ParishUEID": "8292-6296", "Diocese": "Central New York", "Name": "All Saints Episcopal Church", "City": "Johnson City", "State": "New York", "County": "Broome", "Address": "475 Main St, Johnson City, NY 13790", "Website": "https://www.allsaintsjcny.org/", "latitude": 42.11600455, "longitude": -75.96610119, "Address_Search": "All Saints Episcopal Church, 475 Main St, Johnson City, NY 13790", "Avg_Attendance": 39.6, "Avg_Plate_Pledge": 106091.6, "2020_Attendance": 60.0, "2021_Attendance": 30.0, "2022_Attendance": 34.0, "2023_Attendance": 39.0, "2024_Attendance": 35.0, "2020_Plate_Pledge": "105,468", "2021_Plate_Pledge": "110,738", "2022_Plate_Pledge": "99,662", "2023_Plate_Pledge": "98,360", "2024_Plate_Pledge": "116,230"}}, {"type": "Feature", "geometry": {"type": "Point", "coordinates": [-75.919455, 42.099522]}, "properties": {"ParishUEID": "9830-0338", "Diocese": "Central New York", "Name": "Trinity Memorial Church", "City": "Binghamton", "State": "New York", "County": "Broome", "Address": "44 Main St, Binghamton, NY 13905", "Website": "https://www.trinitymemorial.org/", "latitude": 42.09952185, "longitude": -75.91945496, "Address_Search": "Trinity Memorial Church, 44 Main St, Binghamton, NY 13905", "Avg_Attendance": 72.0, "Avg_Plate_Pledge": 256856.8, "2020_Attendance": 92.0, "2021_Attendance": 58.0, "2022_Attendance": 67.0, "2023_Attendance": 76.0, "2024_Attendance": 67.0, "2020_Plate_Pledge": "220,833", "2021_Plate_Pledge": "247,212", "2022_Plate_Pledge": "266,061", "2023_Plate_Pledge": "264,790", "2024_Plate_Pledge": "285,388"}}, {"type": "Feature", "geometry": {"type": "Point", "coordinates": [-75.913389, 42.100439]}, "properties": {"ParishUEID": "4664-6832", "Diocese": "Central New York", "Name": "Christ Church Episcopal", "City": "Binghamton", "State": "New York", "County": "Broome", "Address": "10 Henry St, Binghamton, NY 13901", "Website": "https://www.christchurchbinghamton.org/", "latitude": 42.10043859, "longitude": -75.91338853, "Address_Search": "Christ Church Episcopal, 10 Henry St, Binghamton, NY 13901", "Avg_Attendance": 52.6, "Avg_Plate_Pledge": 194938.2, "2020_Attendance": 72.0, "2021_Attendance": 43.0, "2022_Attendance": 44.0, "2023_Attendance": 55.0, "2024_Attendance": 49.0, "2020_Plate_Pledge": "169,300", "2021_Plate_Pledge": "176,846", "2022_Plate_Pledge": "222,135", "2023_Plate_Pledge": "219,294", "2024_Plate_Pledge": "187,116"}}, {"type": "Feature", "geometry": {"type": "Point", "coordinates": [-75.643943, 42.076056]}, "properties": {"ParishUEID": "4095-3754", "Diocese": "Central New York", "Name": "Zion Episcopal Church", "City": "Windsor", "State": "New York", "County": "Broome", "Address": "50 Chapel St, Windsor, NY 13865", "Website": "http://www.zionchurchwindsor.org/", "latitude": 42.0760558, "longitude": -75.64394292, "Address_Search": "Zion Episcopal Church, 50 Chapel St, Windsor, NY 13865", "Avg_Attendance": 14.0, "Avg_Plate_Pledge": 20033.2, "2020_Attendance": 13.0, "2021_Attendance": 11.0, "2022_Attendance": 16.0, "2023_Attendance": 15.0, "2024_Attendance": 15.0, "2020_Plate_Pledge": "17,860", "2021_Plate_Pledge": "20,585", "2022_Plate_Pledge": "19,592", "2023_Plate_Pledge": "21,621", "2024_Plate_Pledge": "20,508"}}, {"type": "Feature", "geometry": {"type": "Point", "coordinates": [-75.866403, 42.167118]}, "properties": {"ParishUEID": "4636-3404", "Diocese": "Central New York", "Name": "St Mark's Episcopal Church", "City": "Binghamton", "State": "New York", "County": "Broome", "Address": "728 River Rd, Binghamton, NY 13901", "Website": "http://www.stmarks-cb.org/", "latitude": 42.16711755, "longitude": -75.86640323, "Address_Search": "St Mark's Episcopal Church, 728 River Rd, Binghamton, NY 13901", "Avg_Attendance": 59.2, "Avg_Plate_Pledge": 112342.2, "2020_Attendance": 130.0, "2021_Attendance": 40.0, "2022_Attendance": 48.0, "2023_Attendance": 44.0, "2024_Attendance": 34.0, "2020_Plate_Pledge": "164,631", "2021_Plate_Pledge": "136,491", "2022_Plate_Pledge": "111,491", "2023_Plate_Pledge": "88,405", "2024_Plate_Pledge": "60,693"}}, {"type": "Feature", "geometry": {"type": "Point", "coordinates": [-76.334439, 42.226414]}, "properties": {"ParishUEID": "7087-8566", "Diocese": "Central New York", "Name": "St Mark's Episcopal Church", "City": "Candor", "State": "New York", "County": "Tioga", "Address": "17 Main St, Candor, NY 13743", "Website": "https://www.facebook.com/stmarkscandor/", "latitude": 42.22641419, "longitude": -76.33443891, "Address_Search": "St Mark's Episcopal Church, 17 Main St, Candor, NY 13743", "Avg_Attendance": 16.4, "Avg_Plate_Pledge": 29236.0, "2020_Attendance": 21.0, "2021_Attendance": 11.0, "2022_Attendance": 15.0, "2023_Attendance": 15.0, "2024_Attendance": 20.0, "2020_Plate_Pledge": "31,465", "2021_Plate_Pledge": "31,000", "2022_Plate_Pledge": "30,000", "2023_Plate_Pledge": "28,265", "2024_Plate_Pledge": "25,450"}}, {"type": "Feature", "geometry": {"type": "Point", "coordinates": [-76.254208, 42.30277]}, "properties": {"ParishUEID": "4526-7002", "Diocese": "Central New York", "Name": "St John's Episcopal Church", "City": "Berkshire", "State": "New York", "County": "Tompkins", "Address": "1504 76 Rd, Berkshire, NY 13736", "Website": "https://www.facebook.com/StJohnsEpiscopalChurchSpeedsville/", "latitude": 42.30276966, "longitude": -76.25420796, "Address_Search": "St Johns Episcopal Church, 1504 76 Rd, Berkshire, NY 13736", "Avg_Attendance": 16.6, "Avg_Plate_Pledge": 17528.8, "2020_Attendance": 19.0, "2021_Attendance": 16.0, "2022_Attendance": 15.0, "2023_Attendance": 15.0, "2024_Attendance": 18.0, "2020_Plate_Pledge": "24,619", "2021_Plate_Pledge": "17,483", "2022_Plate_Pledge": "15,881", "2023_Plate_Pledge": "13,831", "2024_Plate_Pledge": "15,830"}}, {"type": "Feature", "geometry": {"type": "Point", "coordinates": [-75.768897, 42.330056]}, "properties": {"ParishUEID": "6019-3174", "Diocese": "Central New York", "Name": "Zion Episcopal Church", "City": "Greene", "State": "New York", "County": "Chenango", "Address": "10 N Chenango St, Greene, NY 13778", "Website": "http://www.ziongreene.org/", "latitude": 42.33005573, "longitude": -75.76889664, "Address_Search": "Zion Episcopal Church, 10 N Chenango St, Greene, NY 13778", "Avg_Attendance": 9.4, "Avg_Plate_Pledge": 33008.6, "2020_Attendance": 11.0, "2021_Attendance": 6.0, "2022_Attendance": 11.0, "2023_Attendance": 10.0, "2024_Attendance": 9.0, "2020_Plate_Pledge": "31,911", "2021_Plate_Pledge": "37,000", "2022_Plate_Pledge": "26,898", "2023_Plate_Pledge": "42,084", "2024_Plate_Pledge": "27,150"}}, {"type": "Feature", "geometry": {"type": "Point", "coordinates": [-75.52792, 42.22655]}, "properties": {"ParishUEID": "1605-7598", "Diocese": "Central New York", "Name": "St Ann's Church", "City": "Afton", "State": "New York", "County": "Chenango", "Address": "125 Main St, Afton, NY 13730", "Website": "https://www.stannsaftonny.org/", "latitude": 42.22655019, "longitude": -75.52791971, "Address_Search": "St Ann's Church, 125 Main St, Afton, NY 13730", "Avg_Attendance": 13.0, "Avg_Plate_Pledge": 28632.6, "2020_Attendance": 17.0, "2021_Attendance": 16.0, "2022_Attendance": 13.0, "2023_Attendance": 8.0, "2024_Attendance": 11.0, "2020_Plate_Pledge": "30,938", "2021_Plate_Pledge": "30,094", "2022_Plate_Pledge": "27,157", "2023_Plate_Pledge": "27,617", "2024_Plate_Pledge": "27,357"}}, {"type": "Feature", "geometry": {"type": "Point", "coordinates": [-75.479977, 42.29268]}, "properties": {"ParishUEID": "4324-2494", "Diocese": "Central New York", "Name": "St Peter's Episcopal Church", "City": "Bainbridge", "State": "New York", "County": "Chenango", "Address": "1 Church St, Bainbridge, NY 13733", "Website": "https://www.stpetersbainbridge.com/", "latitude": 42.29267976, "longitude": -75.47997705, "Address_Search": "St Peter's Episcopal Church, 1 Church St, Bainbridge, NY 13733", "Avg_Attendance": 25.8, "Avg_Plate_Pledge": 38533.8, "2020_Attendance": 30.0, "2021_Attendance": 24.0, "2022_Attendance": 26.0, "2023_Attendance": 26.0, "2024_Attendance": 23.0, "2020_Plate_Pledge": "36,856", "2021_Plate_Pledge": "38,463", "2022_Plate_Pledge": "37,992", "2023_Plate_Pledge": "36,732", "2024_Plate_Pledge": "42,626"}}, {"type": "Feature", "geometry": {"type": "Point", "coordinates": [-76.499474, 42.441137]}, "properties": {"ParishUEID": "1543-0978", "Diocese": "Central New York", "Name": "St John's Episcopal Church", "City": "Ithaca", "State": "New York", "County": "Tompkins", "Address": "210 N Cayuga St, Ithaca, NY 14850", "Website": "http://stjohnsithaca.org/", "latitude": 42.44113678, "longitude": -76.4994736, "Address_Search": "St John's Episcopal Church, 210 N Cayuga St, Ithaca, NY 14850", "Avg_Attendance": 70.4, "Avg_Plate_Pledge": 178284.0, "2020_Attendance": 78.0, "2021_Attendance": 42.0, "2022_Attendance": 109.0, "2023_Attendance": 66.0, "2024_Attendance": 57.0, "2020_Plate_Pledge": "178,727", "2021_Plate_Pledge": "176,309", "2022_Plate_Pledge": "196,837", "2023_Plate_Pledge": "177,384", "2024_Plate_Pledge": "162,163"}}, {"type": "Feature", "geometry": {"type": "Point", "coordinates": [-76.485575, 42.444915]}, "properties": {"ParishUEID": "2088-9796", "Diocese": "Central New York", "Name": "Episcopal Church at Cornell", "City": "Ithaca", "State": "New York", "County": "Tompkins", "Address": "548 College Ave, Room 119, Ithaca, NY 14850", "Website": "https://www.episcopalchurchatcornell.org/", "latitude": 42.44491507, "longitude": -76.48557451, "Address_Search": "Episcopal Church at Cornell, 548 College Ave, Room 119, Ithaca, NY 14850", "Avg_Attendance": 18.2, "Avg_Plate_Pledge": 47962.8, "2020_Attendance": 15.0, "2021_Attendance": 16.0, "2022_Attendance": 17.0, "2023_Attendance": 21.0, "2024_Attendance": 22.0, "2020_Plate_Pledge": "69,239", "2021_Plate_Pledge": "24,724", "2022_Plate_Pledge": "28,575", "2023_Plate_Pledge": "35,984", "2024_Plate_Pledge": "81,292"}}, {"type": "Feature", "geometry": {"type": "Point", "coordinates": [-76.345414, 42.394178]}, "properties": {"ParishUEID": "7466-8484", "Diocese": "Central New York", "Name": "St Thomas Episcopal Church", "City": "Slaterville Springs", "State": "New York", "County": "Tompkins", "Address": "2720 Slaterville Rd, Brooktondale, NY 14817", "Website": "http://www.stthomasslaterville.org/", "latitude": 42.39417758, "longitude": -76.34541355, "Address_Search": "St Thomas Episcopal Church, 2720 Slaterville Rd, Brooktondale, NY 14817", "Avg_Attendance": 12.2, "Avg_Plate_Pledge": 27805.6, "2020_Attendance": 12.0, "2021_Attendance": 12.0, "2022_Attendance": 12.0, "2023_Attendance": 13.0, "2024_Attendance": 12.0, "2020_Plate_Pledge": "27,400", "2021_Plate_Pledge": "27,400", "2022_Plate_Pledge": "26,910", "2023_Plate_Pledge": "29,441", "2024_Plate_Pledge": "27,877"}}, {"type": "Feature", "geometry": {"type": "Point", "coordinates": [-76.037697, 42.439875]}, "properties": {"ParishUEID": "7431-6266", "Diocese": "Central New York", "Name": "St John's Chapel", "City": "Marathon", "State": "New York", "County": "Cortland", "Address": "21 W Main St, Marathon, NY 13803", "Website": "https://www.facebook.com/p/St-Johns-Episcopal-Church-Marathon-NY-100067898329312/", "latitude": 42.43987503, "longitude": -76.03769698, "Address_Search": "St Johns Chapel, 21 W Main St, Marathon, NY 13803", "Avg_Attendance": 7.6, "Avg_Plate_Pledge": 7767.0, "2020_Attendance": 7.0, "2021_Attendance": 7.0, "2022_Attendance": 7.0, "2023_Attendance": 7.0, "2024_Attendance": 10.0, "2020_Plate_Pledge": "1,265", "2021_Plate_Pledge": "1,265", "2022_Plate_Pledge": "14,616", "2023_Plate_Pledge": "11,000", "2024_Plate_Pledge": "10,689"}}, {"type": "Feature", "geometry": {"type": "Point", "coordinates": [-75.593861, 42.439802]}, "properties": {"ParishUEID": "1596-9025", "Diocese": "Central New York", "Name": "St Paul's Episcopal Church", "City": "Oxford", "State": "New York", "County": "Chenango", "Address": "34 Main St, Oxford, NY 13830", "Website": "http://stpaulsoxford.org/", "latitude": 42.43980206, "longitude": -75.59386141, "Address_Search": "St Pauls Episcopal Church, 34 Main St, Oxford, NY 13830", "Avg_Attendance": 13.2, "Avg_Plate_Pledge": 28539.6, "2020_Attendance": 15.0, "2021_Attendance": 12.0, "2022_Attendance": 13.0, "2023_Attendance": 10.0, "2024_Attendance": 16.0, "2020_Plate_Pledge": "21,273", "2021_Plate_Pledge": "29,111", "2022_Plate_Pledge": "23,072", "2023_Plate_Pledge": "24,260", "2024_Plate_Pledge": "44,982"}}, {"type": "Feature", "geometry": {"type": "Point", "coordinates": [-75.527214, 42.530597]}, "properties": {"ParishUEID": "1017-4712", "Diocese": "Central New York", "Name": "Emmanuel Episcopal Church", "City": "Norwich", "State": "New York", "County": "Chenango", "Address": "37 W Main St, Norwich, NY 13815", "Website": "https://bigreddoor.org/", "latitude": 42.53059677, "longitude": -75.52721418, "Address_Search": "Emmanuel Episcopal Church, 37 W Main St, Norwich, NY 13815", "Avg_Attendance": 29.0, "Avg_Plate_Pledge": 103030.8, "2020_Attendance": 33.0, "2021_Attendance": 26.0, "2022_Attendance": 26.0, "2023_Attendance": 28.0, "2024_Attendance": 32.0, "2020_Plate_Pledge": "28,504", "2021_Plate_Pledge": "34,157", "2022_Plate_Pledge": "41,028", "2023_Plate_Pledge": "27,766", "2024_Plate_Pledge": "383,699"}}, {"type": "Feature", "geometry": {"type": "Point", "coordinates": [-75.384128, 42.530342]}, "properties": {"ParishUEID": "9313-9079", "Diocese": "Central New York", "Name": "St Matthew's Church", "City": "South New Berlin", "State": "New York", "County": "Chenango", "Address": "N Main St, South New Berlin, NY 13843", "Website": "https://bigreddoor.org/", "latitude": 42.5303421, "longitude": -75.38412777, "Address_Search": "St Matthews Church, N Main St, South New Berlin, NY 13843", "Avg_Attendance": 15.0, "Avg_Plate_Pledge": 22131.4, "2020_Attendance": 13.0, "2021_Attendance": 14.0, "2022_Attendance": 14.0, "2023_Attendance": 15.0, "2024_Attendance": 19.0, "2020_Plate_Pledge": "19,666", "2021_Plate_Pledge": "15,492", "2022_Plate_Pledge": "19,449", "2023_Plate_Pledge": "22,736", "2024_Plate_Pledge": "33,314"}}, {"type": "Feature", "geometry": {"type": "Point", "coordinates": [-75.332576, 42.621848]}, "properties": {"ParishUEID": "2546-1500", "Diocese": "Central New York", "Name": "St Andrew's Episcopal Church", "City": "New Berlin", "State": "New York", "County": "Chenango", "Address": "40 S Main St, New Berlin, NY 13411", "Website": "https://bigreddoor.org/", "latitude": 42.62184754, "longitude": -75.33257646, "Address_Search": "St Andrews Episcopal Church, 40 S Main St, New Berlin, NY 13411", "Avg_Attendance": 25.4, "Avg_Plate_Pledge": 40997.2, "2020_Attendance": 27.0, "2021_Attendance": 24.0, "2022_Attendance": 27.0, "2023_Attendance": 21.0, "2024_Attendance": 28.0, "2020_Plate_Pledge": "64,658", "2021_Plate_Pledge": "69,590", "2022_Plate_Pledge": "23,871", "2023_Plate_Pledge": "23,337", "2024_Plate_Pledge": "23,530"}}, {"type": "Feature", "geometry": {"type": "Point", "coordinates": [-75.49616, 42.679554]}, "properties": {"ParishUEID": "9471-9457", "Diocese": "Central New York", "Name": "Episcopal Church of the Epiphany", "City": "Sherburne", "State": "New York", "County": "Chenango", "Address": "5 Classic St, Sherburne, NY 13460", "Website": "http://epiphanysherburne.church/", "latitude": 42.67955403, "longitude": -75.49615987, "Address_Search": "Episcopal Church of the Epiphany, 5 Classic St, Sherburne, NY 13460", "Avg_Attendance": 14.0, "Avg_Plate_Pledge": 12287.8, "2020_Attendance": 15.0, "2021_Attendance": 8.0, "2022_Attendance": 18.0, "2023_Attendance": 19.0, "2024_Attendance": 10.0, "2020_Plate_Pledge": "14,565", "2021_Plate_Pledge": "11,539", "2022_Plate_Pledge": "11,128", "2023_Plate_Pledge": "14,321", "2024_Plate_Pledge": "9,886"}}, {"type": "Feature", "geometry": {"type": "Point", "coordinates": [-76.17953, 42.598953]}, "properties": {"ParishUEID": "7109-3850", "Diocese": "Central New York", "Name": "Grace and Holy Spirit Episcopal Church", "City": "Cortland", "State": "New York", "County": "Cortland", "Address": "13 Court St, Cortland, NY 13045", "Website": "https://www.graceandholyspirit.org/", "latitude": 42.59895317, "longitude": -76.17953009, "Address_Search": "Grace and Holy Spirit Episcopal Church, 13 Court St, Cortland, NY 13045", "Avg_Attendance": 0.0, "Avg_Plate_Pledge": 0.0, "2020_Attendance": NaN, "2021_Attendance": NaN, "2022_Attendance": NaN, "2023_Attendance": NaN, "2024_Attendance": NaN, "2020_Plate_Pledge": NaN, "2021_Plate_Pledge": NaN, "2022_Plate_Pledge": NaN, "2023_Plate_Pledge": NaN, "2024_Plate_Pledge": NaN}}, {"type": "Feature", "geometry": {"type": "Point", "coordinates": [-76.660635, 42.540776]}, "properties": {"ParishUEID": "6514-5161", "Diocese": "Central New York", "Name": "Church of the Epiphany", "City": "Trumansburg", "State": "New York", "County": "Tompkins", "Address": "11 Elm St, Trumansburg, NY 14886", "Website": "http://epiphanytrumansburg.org/", "latitude": 42.54077642, "longitude": -76.66063486, "Address_Search": "Church of the Epiphany, 11 Elm St, Trumansburg, NY 14886", "Avg_Attendance": 22.6, "Avg_Plate_Pledge": 41833.2, "2020_Attendance": 29.0, "2021_Attendance": 20.0, "2022_Attendance": 20.0, "2023_Attendance": 20.0, "2024_Attendance": 24.0, "2020_Plate_Pledge": "41,096", "2021_Plate_Pledge": "39,018", "2022_Plate_Pledge": "45,970", "2023_Plate_Pledge": "44,416", "2024_Plate_Pledge": "38,666"}}, {"type": "Feature", "geometry": {"type": "Point", "coordinates": [-76.872945, 42.681988]}, "properties": {"ParishUEID": "2808-5983", "Diocese": "Central New York", "Name": "Christ Episcopal Church", "City": "Willard", "State": "New York", "County": "Seneca", "Address": "1395 Country Road 132, Willard, NY 14521", "Website": "https://www.christchurchwillardny.com/", "latitude": 42.68198788, "longitude": -76.87294524, "Address_Search": "Christ Episcopal Church, 1395 Country Road 132, Willard, NY 14521", "Avg_Attendance": 9.0, "Avg_Plate_Pledge": 12171.6, "2020_Attendance": 11.0, "2021_Attendance": 7.0, "2022_Attendance": 7.0, "2023_Attendance": 12.0, "2024_Attendance": 8.0, "2020_Plate_Pledge": "10,975", "2021_Plate_Pledge": "9,317", "2022_Plate_Pledge": "14,213", "2023_Plate_Pledge": "10,724", "2024_Plate_Pledge": "15,629"}}, {"type": "Feature", "geometry": {"type": "Point", "coordinates": [-76.702304, 42.752397]}, "properties": {"ParishUEID": "8774-5204", "Diocese": "Central New York", "Name": "United Ministry of Aurora", "City": "Aurora", "State": "New York", "County": "Cayuga", "Address": "337 Main St, Aurora, NY 13026", "Website": "https://www.unitedministryofaurora.org/", "latitude": 42.75239696, "longitude": -76.70230397, "Address_Search": "United Ministry of Aurora, 337 Main St, Aurora, NY 13026", "Avg_Attendance": 7.2, "Avg_Plate_Pledge": 12004.2, "2020_Attendance": 7.0, "2021_Attendance": 7.0, "2022_Attendance": 7.0, "2023_Attendance": 7.0, "2024_Attendance": 8.0, "2020_Plate_Pledge": "14,660", "2021_Plate_Pledge": "0", "2022_Plate_Pledge": "0", "2023_Plate_Pledge": "23,747", "2024_Plate_Pledge": "21,614"}}, {"type": "Feature", "geometry": {"type": "Point", "coordinates": [-76.420205, 42.710316]}, "properties": {"ParishUEID": "9978-2526", "Diocese": "Central New York", "Name": "St Matthew's Church", "City": "Moravia", "State": "New York", "County": "Cayuga", "Address": "14 Church St, Moravia, NY 13118", "Website": "https://www.facebook.com/StMattsMoravia/", "latitude": 42.71031591, "longitude": -76.4202053, "Address_Search": "St Matthews Church, 14 Church St, Moravia, NY 13118", "Avg_Attendance": 25.6, "Avg_Plate_Pledge": 41618.4, "2020_Attendance": 35.0, "2021_Attendance": 26.0, "2022_Attendance": 20.0, "2023_Attendance": 20.0, "2024_Attendance": 27.0, "2020_Plate_Pledge": "48,070", "2021_Plate_Pledge": "43,926", "2022_Plate_Pledge": "36,044", "2023_Plate_Pledge": "38,906", "2024_Plate_Pledge": "41,146"}}, {"type": "Feature", "geometry": {"type": "Point", "coordinates": [-75.853259, 42.92895]}, "properties": {"ParishUEID": "3179-1478", "Diocese": "Central New York", "Name": "St Peter's Episcopal Church", "City": "Cazenovia", "State": "New York", "County": "Madison", "Address": "12 Mill St, Cazenovia, NY 13035", "Website": "http://www.stpeterscaz.org/", "latitude": 42.92894989, "longitude": -75.85325862, "Address_Search": "St Peters Episcopal Church, 12 Mill St, Cazenovia, NY 13035", "Avg_Attendance": 50.8, "Avg_Plate_Pledge": 219307.4, "2020_Attendance": 50.0, "2021_Attendance": 39.0, "2022_Attendance": 40.0, "2023_Attendance": 61.0, "2024_Attendance": 64.0, "2020_Plate_Pledge": "190,752", "2021_Plate_Pledge": "208,554", "2022_Plate_Pledge": "219,542", "2023_Plate_Pledge": "223,633", "2024_Plate_Pledge": "254,056"}}, {"type": "Feature", "geometry": {"type": "Point", "coordinates": [-75.544059, 42.828441]}, "properties": {"ParishUEID": "3391-7832", "Diocese": "Central New York", "Name": "St Thomas Episcopal Church", "City": "Hamilton", "State": "New York", "County": "Madison", "Address": "12 1/2 Madison St, Hamilton, NY 13346", "Website": "http://www.stthomashamilton.org/", "latitude": 42.82844111, "longitude": -75.54405899, "Address_Search": "St Thomas Episcopal Church, 12 1/2 Madison St, Hamilton, NY 13346", "Avg_Attendance": 57.6, "Avg_Plate_Pledge": 252921.6, "2020_Attendance": 83.0, "2021_Attendance": 53.0, "2022_Attendance": 45.0, "2023_Attendance": 53.0, "2024_Attendance": 54.0, "2020_Plate_Pledge": "210,603", "2021_Plate_Pledge": "171,450", "2022_Plate_Pledge": "199,199", "2023_Plate_Pledge": "196,428", "2024_Plate_Pledge": "486,928"}}, {"type": "Feature", "geometry": {"type": "Point", "coordinates": [-76.860048, 42.905662]}, "properties": {"ParishUEID": "3623-5570", "Diocese": "Central New York", "Name": "St Paul's Episcopal Church", "City": "Waterloo", "State": "New York", "County": "Seneca", "Address": "101 E Williams St, Waterloo, NY 13165", "Website": "https://stpaulswaterloony.org/", "latitude": 42.90566231, "longitude": -76.86004784, "Address_Search": "St Pauls Episcopal Church, 101 E Williams St, Waterloo, NY 13165", "Avg_Attendance": 23.8, "Avg_Plate_Pledge": 54723.0, "2020_Attendance": 35.0, "2021_Attendance": 21.0, "2022_Attendance": 18.0, "2023_Attendance": 25.0, "2024_Attendance": 20.0, "2020_Plate_Pledge": "49,653", "2021_Plate_Pledge": "64,172", "2022_Plate_Pledge": "58,436", "2023_Plate_Pledge": "51,006", "2024_Plate_Pledge": "50,348"}}, {"type": "Feature", "geometry": {"type": "Point", "coordinates": [-76.794454, 42.910217]}, "properties": {"ParishUEID": "2846-2562", "Diocese": "Central New York", "Name": "Trinity Episcopal Church", "City": "Seneca Falls", "State": "New York", "County": "Seneca", "Address": "27 Fall St, Seneca Falls, NY 13148", "Website": "https://trinitychurchsenecafallsny.com/", "latitude": 42.91021691, "longitude": -76.7944536, "Address_Search": "Trinity Episcopal Church, 27 Fall St, Seneca Falls, NY 13148", "Avg_Attendance": 31.8, "Avg_Plate_Pledge": 78039.0, "2020_Attendance": 37.0, "2021_Attendance": 32.0, "2022_Attendance": 28.0, "2023_Attendance": 32.0, "2024_Attendance": 30.0, "2020_Plate_Pledge": "75,429", "2021_Plate_Pledge": "71,705", "2022_Plate_Pledge": "71,804", "2023_Plate_Pledge": "73,967", "2024_Plate_Pledge": "97,290"}}, {"type": "Feature", "geometry": {"type": "Point", "coordinates": [-76.571166, 42.929934]}, "properties": {"ParishUEID": "6302-3667", "Diocese": "Central New York", "Name": "Episcopal Church of Sts Peter & John", "City": "Auburn", "State": "New York", "County": "Cayuga", "Address": "169 Genesee St, Auburn, NY 13021", "Website": "http://www.peterandjohnepiscopal.org/", "latitude": 42.92993445, "longitude": -76.57116602, "Address_Search": "Episcopal Church of Sts Peter & John, 169 Genesee St, Auburn, NY 13021", "Avg_Attendance": 56.0, "Avg_Plate_Pledge": 110813.0, "2020_Attendance": 58.0, "2021_Attendance": 49.0, "2022_Attendance": 55.0, "2023_Attendance": 61.0, "2024_Attendance": 57.0, "2020_Plate_Pledge": "99,925", "2021_Plate_Pledge": "113,971", "2022_Plate_Pledge": "106,345", "2023_Plate_Pledge": "115,402", "2024_Plate_Pledge": "118,422"}}, {"type": "Feature", "geometry": {"type": "Point", "coordinates": [-76.425283, 42.945065]}, "properties": {"ParishUEID": "7676-8514", "Diocese": "Central New York", "Name": "St James' Episcopal Church", "City": "Skaneateles", "State": "New York", "County": "Onondaga", "Address": "96 E Genesee St, Skaneateles, NY 13152", "Website": "https://www.stjamesskan.org/", "latitude": 42.94506481, "longitude": -76.42528308, "Address_Search": "St James Episcopal Church, 96 E Genesee St, Skaneateles, NY 13152", "Avg_Attendance": 123.0, "Avg_Plate_Pledge": 419519.8, "2020_Attendance": 140.0, "2021_Attendance": 85.0, "2022_Attendance": 112.0, "2023_Attendance": 139.0, "2024_Attendance": 139.0, "2020_Plate_Pledge": "420,480", "2021_Plate_Pledge": "422,691", "2022_Plate_Pledge": "466,258", "2023_Plate_Pledge": "409,747", "2024_Plate_Pledge": "378,423"}}, {"type": "Feature", "geometry": {"type": "Point", "coordinates": [-76.337399, 42.98449]}, "properties": {"ParishUEID": "1964-7320", "Diocese": "Central New York", "Name": "St John's Episcopal Church", "City": "Marcellus", "State": "New York", "County": "Onondaga", "Address": "15 Orange St, Marcellus, NY 13108https://stjohnsmarcellus.org/", "Website": "https://www.episcopalchurch.org/", "latitude": 42.98448964, "longitude": -76.33739891, "Address_Search": "St Johns Episcopal Church, 15 Orange St, Marcellus, NY 13108https://stjohnsmarcellus.org/", "Avg_Attendance": 30.2, "Avg_Plate_Pledge": 60302.2, "2020_Attendance": 36.0, "2021_Attendance": 26.0, "2022_Attendance": 28.0, "2023_Attendance": 29.0, "2024_Attendance": 32.0, "2020_Plate_Pledge": "59,355", "2021_Plate_Pledge": "52,934", "2022_Plate_Pledge": "66,599", "2023_Plate_Pledge": "61,815", "2024_Plate_Pledge": "60,808"}}, {"type": "Feature", "geometry": {"type": "Point", "coordinates": [-76.275816, 43.041542]}, "properties": {"ParishUEID": "2518-2114", "Diocese": "Central New York", "Name": "St Luke's Episcopal Church", "City": "Camillus", "State": "New York", "County": "Onondaga", "Address": "5402 W Genesee St, Camillus, NY 13031", "Website": "https://www.camillusepiscopal.org/", "latitude": 43.0415416, "longitude": -76.27581594, "Address_Search": "St Lukes Episcopal Church, 5402 W Genesee St, Camillus, NY 13031", "Avg_Attendance": 34.4, "Avg_Plate_Pledge": 130117.6, "2020_Attendance": 52.0, "2021_Attendance": 28.0, "2022_Attendance": 30.0, "2023_Attendance": 30.0, "2024_Attendance": 32.0, "2020_Plate_Pledge": "128,839", "2021_Plate_Pledge": "140,157", "2022_Plate_Pledge": "127,843", "2023_Plate_Pledge": "130,729", "2024_Plate_Pledge": "123,020"}}, {"type": "Feature", "geometry": {"type": "Point", "coordinates": [-76.475196, 43.066942]}, "properties": {"ParishUEID": "5328-2125", "Diocese": "Central New York", "Name": "Christ Episcopal Church", "City": "Jordan", "State": "New York", "County": "Onondaga", "Address": "25 N Main St, Jordan, NY 13080", "Website": "http://www.christchurchjordan.org", "latitude": 43.06694246, "longitude": -76.47519578, "Address_Search": "Christ Episcopal Church, 25 N Main St, Jordan, NY 13080", "Avg_Attendance": 12.6, "Avg_Plate_Pledge": 24290.0, "2020_Attendance": 14.0, "2021_Attendance": 12.0, "2022_Attendance": 12.0, "2023_Attendance": 12.0, "2024_Attendance": 13.0, "2020_Plate_Pledge": "17,365", "2021_Plate_Pledge": "22,548", "2022_Plate_Pledge": "22,679", "2023_Plate_Pledge": "22,520", "2024_Plate_Pledge": "36,338"}}, {"type": "Feature", "geometry": {"type": "Point", "coordinates": [-76.186667, 43.052691]}, "properties": {"ParishUEID": "1652-3581", "Diocese": "Central New York", "Name": "St Mark the Evangelist", "City": "Syracuse", "State": "New York", "County": "Onondaga", "Address": "1612 W Genesee St, Syracuse, NY 13204", "Website": "http://www.stmarkssyracuse.com/", "latitude": 43.05269117, "longitude": -76.1866674, "Address_Search": "St Mark the Evangelist, 1612 W Genesee St, Syracuse, NY 13204", "Avg_Attendance": 32.2, "Avg_Plate_Pledge": 62580.6, "2020_Attendance": 39.0, "2021_Attendance": 32.0, "2022_Attendance": 27.0, "2023_Attendance": 29.0, "2024_Attendance": 34.0, "2020_Plate_Pledge": "60,257", "2021_Plate_Pledge": "55,034", "2022_Plate_Pledge": "66,366", "2023_Plate_Pledge": "57,056", "2024_Plate_Pledge": "74,190"}}, {"type": "Feature", "geometry": {"type": "Point", "coordinates": [-76.14976, 43.04844]}, "properties": {"ParishUEID": "6826-0769", "Diocese": "Central New York", "Name": "St. Paul's Syracuse", "City": "Syracuse", "State": "New York", "County": "Onondaga", "Address": "310 Montgomery St, Syracuse, NY 13202", "Website": "http://www.stpaulsyr.org/", "latitude": 43.04844011, "longitude": -76.14976049, "Address_Search": "St. Paul's Syracuse, 310 Montgomery St, Syracuse, NY 13202", "Avg_Attendance": 69.6, "Avg_Plate_Pledge": 146498.2, "2020_Attendance": 93.0, "2021_Attendance": 40.0, "2022_Attendance": 75.0, "2023_Attendance": 70.0, "2024_Attendance": 70.0, "2020_Plate_Pledge": "137,863", "2021_Plate_Pledge": "136,301", "2022_Plate_Pledge": "147,606", "2023_Plate_Pledge": "158,239", "2024_Plate_Pledge": "152,482"}}, {"type": "Feature", "geometry": {"type": "Point", "coordinates": [-76.147557, 43.053258]}, "properties": {"ParishUEID": "8639-2545", "Diocese": "Central New York", "Name": "Church of the Saviour", "City": "Syracuse", "State": "New York", "County": "Onondaga", "Address": "437 James St, Syracuse, NY 13203", "Website": "http://www.thechurchofthesaviour.org/", "latitude": 43.05325843, "longitude": -76.14755729, "Address_Search": "Church of the Saviour, 437 James St, Syracuse, NY 13203", "Avg_Attendance": 31.6, "Avg_Plate_Pledge": 32223.0, "2020_Attendance": 29.0, "2021_Attendance": 36.0, "2022_Attendance": 26.0, "2023_Attendance": 36.0, "2024_Attendance": 31.0, "2020_Plate_Pledge": "22,854", "2021_Plate_Pledge": "31,104", "2022_Plate_Pledge": "33,192", "2023_Plate_Pledge": "36,945", "2024_Plate_Pledge": "37,020"}}, {"type": "Feature", "geometry": {"type": "Point", "coordinates": [-76.13479, 43.045606]}, "properties": {"ParishUEID": "7476-5371", "Diocese": "Central New York", "Name": "Grace Church", "City": "Syracuse", "State": "New York", "County": "Onondaga", "Address": "819 Madison St, Syracuse, NY 13210", "Website": "http://www.gracesyracuse.org/", "latitude": 43.04560643, "longitude": -76.13478984, "Address_Search": "Grace Church, 819 Madison St, Syracuse, NY 13210", "Avg_Attendance": 34.4, "Avg_Plate_Pledge": 89929.8, "2020_Attendance": 20.0, "2021_Attendance": 29.0, "2022_Attendance": 28.0, "2023_Attendance": 45.0, "2024_Attendance": 50.0, "2020_Plate_Pledge": "83,659", "2021_Plate_Pledge": "91,176", "2022_Plate_Pledge": "94,642", "2023_Plate_Pledge": "85,066", "2024_Plate_Pledge": "95,106"}}, {"type": "Feature", "geometry": {"type": "Point", "coordinates": [-76.10746, 43.039281]}, "properties": {"ParishUEID": "7959-0204", "Diocese": "Central New York", "Name": "St Alban's Episcopal Church", "City": "Syracuse", "State": "New York", "County": "Onondaga", "Address": "1308 Meadowbrook Dr, Syracuse, NY 13224", "Website": "http://stalbansyracuse.org/", "latitude": 43.03928102, "longitude": -76.10745983, "Address_Search": "St Albans Episcopal Church, 1308 Meadowbrook Dr, Syracuse, NY 13224", "Avg_Attendance": 26.8, "Avg_Plate_Pledge": 86923.6, "2020_Attendance": 28.0, "2021_Attendance": 32.0, "2022_Attendance": 24.0, "2023_Attendance": 26.0, "2024_Attendance": 24.0, "2020_Plate_Pledge": "83,069", "2021_Plate_Pledge": "82,220", "2022_Plate_Pledge": "88,554", "2023_Plate_Pledge": "83,978", "2024_Plate_Pledge": "96,797"}}, {"type": "Feature", "geometry": {"type": "Point", "coordinates": [-76.078224, 43.066907]}, "properties": {"ParishUEID": "3710-2498", "Diocese": "Central New York", "Name": "Dianjit Episcopal Chapel", "City": "East Syracuse", "State": "New York", "County": "Onondaga", "Address": "400 W Yates St, East Syracuse, NY 13057", "Website": "https://www.facebook.com/diangditepichapel/", "latitude": 43.06690737, "longitude": -76.07822375, "Address_Search": "Dianjit Episcopal Chapel, 400 W Yates St, East Syracuse, NY 13057", "Avg_Attendance": 22.8, "Avg_Plate_Pledge": 3366.0, "2020_Attendance": 36.0, "2021_Attendance": 25.0, "2022_Attendance": 25.0, "2023_Attendance": 3.0, "2024_Attendance": 25.0, "2020_Plate_Pledge": "1,950", "2021_Plate_Pledge": "1,242", "2022_Plate_Pledge": "1,242", "2023_Plate_Pledge": "1,242", "2024_Plate_Pledge": "11,154"}}, {"type": "Feature", "geometry": {"type": "Point", "coordinates": [-76.05798, 43.027658]}, "properties": {"ParishUEID": "6195-6389", "Diocese": "Central New York", "Name": "St David's Episcopal Church", "City": "Fayetteville", "State": "New York", "County": "Onondaga", "Address": "14 Jamar Dr, Fayetteville, NY 13066", "Website": "http://www.stdavidscny.org/", "latitude": 43.02765782, "longitude": -76.05797962, "Address_Search": "St Davids Episcopal Church, 14 Jamar Dr, Fayetteville, NY 13066", "Avg_Attendance": 35.8, "Avg_Plate_Pledge": 117803.6, "2020_Attendance": 43.0, "2021_Attendance": 34.0, "2022_Attendance": 34.0, "2023_Attendance": 38.0, "2024_Attendance": 30.0, "2020_Plate_Pledge": "115,586", "2021_Plate_Pledge": "119,066", "2022_Plate_Pledge": "120,779", "2023_Plate_Pledge": "118,994", "2024_Plate_Pledge": "114,593"}}, {"type": "Feature", "geometry": {"type": "Point", "coordinates": [-76.006763, 43.029226]}, "properties": {"ParishUEID": "7013-6312", "Diocese": "Central New York", "Name": "Trinity Episcopal Church", "City": "Fayetteville", "State": "New York", "County": "Onondaga", "Address": "106 Chapel St, Fayetteville, NY 13066", "Website": "http://www.trinityfayetteville.org/", "latitude": 43.02922613, "longitude": -76.00676265, "Address_Search": "Trinity Episcopal Church, 106 Chapel St, Fayetteville, NY 13066", "Avg_Attendance": 100.2, "Avg_Plate_Pledge": 311913.4, "2020_Attendance": 141.0, "2021_Attendance": 61.0, "2022_Attendance": 101.0, "2023_Attendance": 107.0, "2024_Attendance": 91.0, "2020_Plate_Pledge": "283,783", "2021_Plate_Pledge": "296,587", "2022_Plate_Pledge": "317,335", "2023_Plate_Pledge": "323,945", "2024_Plate_Pledge": "337,917"}}, {"type": "Feature", "geometry": {"type": "Point", "coordinates": [-75.974847, 43.002693]}, "properties": {"ParishUEID": "4501-2143", "Diocese": "Central New York", "Name": "Christ Church", "City": "Manlius", "State": "New York", "County": "Onondaga", "Address": "407 E Seneca St, Manlius, NY 13104", "Website": "https://christchurchmanlius.org/", "latitude": 43.00269291, "longitude": -75.97484695, "Address_Search": "Christ Church, 407 E Seneca St, Manlius, NY 13104", "Avg_Attendance": 71.2, "Avg_Plate_Pledge": 244029.6, "2020_Attendance": 87.0, "2021_Attendance": 53.0, "2022_Attendance": 60.0, "2023_Attendance": 76.0, "2024_Attendance": 80.0, "2020_Plate_Pledge": "241,596", "2021_Plate_Pledge": "248,881", "2022_Plate_Pledge": "227,993", "2023_Plate_Pledge": "235,947", "2024_Plate_Pledge": "265,731"}}, {"type": "Feature", "geometry": {"type": "Point", "coordinates": [-76.199331, 43.108259]}, "properties": {"ParishUEID": "5299-4175", "Diocese": "Central New York", "Name": "St Matthew's Episcopal Church", "City": "Liverpool", "State": "New York", "County": "Onondaga", "Address": "904 Vine St, Liverpool, NY 13088http://www.stmatthewsliverpool.org/", "Website": "https://www.episcopalchurch.org/", "latitude": 43.10825867, "longitude": -76.19933091, "Address_Search": "St Matthews Episcopal Church, 904 Vine St, Liverpool, NY 13088http://www.stmatthewsliverpool.org/", "Avg_Attendance": 95.2, "Avg_Plate_Pledge": 246050.6, "2020_Attendance": 134.0, "2021_Attendance": 80.0, "2022_Attendance": 82.0, "2023_Attendance": 91.0, "2024_Attendance": 89.0, "2020_Plate_Pledge": "232,519", "2021_Plate_Pledge": "265,274", "2022_Plate_Pledge": "246,744", "2023_Plate_Pledge": "269,051", "2024_Plate_Pledge": "216,665"}}, {"type": "Feature", "geometry": {"type": "Point", "coordinates": [-75.866306, 43.044546]}, "properties": {"ParishUEID": "6027-9155", "Diocese": "Central New York", "Name": "St Paul's Episcopal Church", "City": "Chittenango", "State": "New York", "County": "Madison", "Address": "204 Genesee St, Chittenango, NY 13037", "Website": "http://www.stpaulschittenango.org/", "latitude": 43.04454567, "longitude": -75.86630567, "Address_Search": "St Pauls Episcopal Church, 204 Genesee St, Chittenango, NY 13037", "Avg_Attendance": 15.8, "Avg_Plate_Pledge": 39933.0, "2020_Attendance": 15.0, "2021_Attendance": 19.0, "2022_Attendance": 18.0, "2023_Attendance": 13.0, "2024_Attendance": 14.0, "2020_Plate_Pledge": "37,579", "2021_Plate_Pledge": "38,943", "2022_Plate_Pledge": "42,395", "2023_Plate_Pledge": "38,138", "2024_Plate_Pledge": "42,610"}}, {"type": "Feature", "geometry": {"type": "Point", "coordinates": [-75.751842, 43.072571]}, "properties": {"ParishUEID": "7639-1085", "Diocese": "Central New York", "Name": "Trinity Episcopal Church", "City": "Canastota", "State": "New York", "County": "Madison", "Address": "400 S Peterboro St, Canastota, NY 13032", "Website": "https://www.facebook.com/trinitycanastotany/", "latitude": 43.07257097, "longitude": -75.75184212, "Address_Search": "Trinity Episcopal Church, 400 S Peterboro St, Canastota, NY 13032", "Avg_Attendance": 8.2, "Avg_Plate_Pledge": 16588.8, "2020_Attendance": 10.0, "2021_Attendance": 7.0, "2022_Attendance": 9.0, "2023_Attendance": 8.0, "2024_Attendance": 7.0, "2020_Plate_Pledge": "17,012", "2021_Plate_Pledge": "22,557", "2022_Plate_Pledge": "17,089", "2023_Plate_Pledge": "14,991", "2024_Plate_Pledge": "11,295"}}, {"type": "Feature", "geometry": {"type": "Point", "coordinates": [-75.648297, 43.090003]}, "properties": {"ParishUEID": "4614-2493", "Diocese": "Central New York", "Name": "St John's Church", "City": "Oneida", "State": "New York", "County": "Madison", "Address": "341 Main St, Oneida, NY 13421", "Website": "http://www.stjohnsoneida.org/", "latitude": 43.09000318, "longitude": -75.64829701, "Address_Search": "St Johns Church, 341 Main St, Oneida, NY 13421", "Avg_Attendance": 34.8, "Avg_Plate_Pledge": 71538.2, "2020_Attendance": 45.0, "2021_Attendance": 28.0, "2022_Attendance": 32.0, "2023_Attendance": 34.0, "2024_Attendance": 35.0, "2020_Plate_Pledge": "76,050", "2021_Plate_Pledge": "67,952", "2022_Plate_Pledge": "63,228", "2023_Plate_Pledge": "79,763", "2024_Plate_Pledge": "70,698"}}, {"type": "Feature", "geometry": {"type": "Point", "coordinates": [-75.598351, 43.069064]}, "properties": {"ParishUEID": "6874-3277", "Diocese": "Central New York", "Name": "Gethsemane Episcopal Church", "City": "Sherrill", "State": "New York", "County": "Oneida", "Address": "320 Park St, Sherrill, NY 13461", "Website": "https://www.facebook.com/geth320/", "latitude": 43.06906408, "longitude": -75.59835148, "Address_Search": "Gethsemane Episcopal Church, 320 Park St, Sherrill, NY 13461", "Avg_Attendance": 15.0, "Avg_Plate_Pledge": 32318.2, "2020_Attendance": 18.0, "2021_Attendance": 12.0, "2022_Attendance": 12.0, "2023_Attendance": 18.0, "2024_Attendance": 15.0, "2020_Plate_Pledge": "29,934", "2021_Plate_Pledge": "27,129", "2022_Plate_Pledge": "33,059", "2023_Plate_Pledge": "39,124", "2024_Plate_Pledge": "32,345"}}, {"type": "Feature", "geometry": {"type": "Point", "coordinates": [-75.378439, 43.046835]}, "properties": {"ParishUEID": "8727-7158", "Diocese": "Central New York", "Name": "St James' Episcopal Church", "City": "Clinton", "State": "New York", "County": "Oneida", "Address": "9 Williams St, Clinton, NY 13323", "Website": "http://stjamesclinton.org/", "latitude": 43.04683475, "longitude": -75.37843915, "Address_Search": "St James Episcopal Church, 9 Williams St, Clinton, NY 13323", "Avg_Attendance": 37.6, "Avg_Plate_Pledge": 156061.2, "2020_Attendance": 53.0, "2021_Attendance": 16.0, "2022_Attendance": 27.0, "2023_Attendance": 44.0, "2024_Attendance": 48.0, "2020_Plate_Pledge": "137,276", "2021_Plate_Pledge": "160,982", "2022_Plate_Pledge": "147,397", "2023_Plate_Pledge": "153,081", "2024_Plate_Pledge": "181,570"}}, {"type": "Feature", "geometry": {"type": "Point", "coordinates": [-75.286431, 43.070968]}, "properties": {"ParishUEID": "3931-9199", "Diocese": "Central New York", "Name": "St Stephen's Church", "City": "New Hartford", "State": "New York", "County": "Oneida", "Address": "25 Oxford Rd, New Hartford, NY 13413", "Website": "http://ststephens-newhartford.org/", "latitude": 43.07096799, "longitude": -75.28643145, "Address_Search": "St Stephens Church, 25 Oxford Rd, New Hartford, NY 13413", "Avg_Attendance": 27.4, "Avg_Plate_Pledge": 35382.2, "2020_Attendance": 23.0, "2021_Attendance": 38.0, "2022_Attendance": 23.0, "2023_Attendance": 29.0, "2024_Attendance": 24.0, "2020_Plate_Pledge": "26,797", "2021_Plate_Pledge": "29,534", "2022_Plate_Pledge": "37,937", "2023_Plate_Pledge": "42,893", "2024_Plate_Pledge": "39,750"}}, {"type": "Feature", "geometry": {"type": "Point", "coordinates": [-75.23101, 43.101085]}, "properties": {"ParishUEID": "1148-2809", "Diocese": "Central New York", "Name": "Grace Episcopal Church", "City": "Utica", "State": "New York", "County": "Oneida", "Address": "6 Elizabeth St, Utica, NY 13501", "Website": "http://www.gracechurchutica.org", "latitude": 43.10108473, "longitude": -75.23101, "Address_Search": "Grace Episcopal Church, 6 Elizabeth St, Utica, NY 13501", "Avg_Attendance": 84.6, "Avg_Plate_Pledge": 172718.0, "2020_Attendance": 112.0, "2021_Attendance": 48.0, "2022_Attendance": 86.0, "2023_Attendance": 89.0, "2024_Attendance": 88.0, "2020_Plate_Pledge": "157,565", "2021_Plate_Pledge": "193,311", "2022_Plate_Pledge": "171,359", "2023_Plate_Pledge": "177,019", "2024_Plate_Pledge": "164,336"}}, {"type": "Feature", "geometry": {"type": "Point", "coordinates": [-75.188979, 43.271827]}, "properties": {"ParishUEID": "1301-3487", "Diocese": "Central New York", "Name": "St David's Episcopal Church", "City": "Barneveld", "State": "New York", "County": "Oneida", "Address": "140 Mappa Ave, Barneveld, NY 13304", "Website": "http://stdavidsbarneveld.org/", "latitude": 43.27182669, "longitude": -75.18897905, "Address_Search": "St Davids Episcopal Church, 140 Mappa Ave, Barneveld, NY 13304", "Avg_Attendance": 19.0, "Avg_Plate_Pledge": 40765.8, "2020_Attendance": 21.0, "2021_Attendance": 15.0, "2022_Attendance": 18.0, "2023_Attendance": 21.0, "2024_Attendance": 20.0, "2020_Plate_Pledge": "38,440", "2021_Plate_Pledge": "35,756", "2022_Plate_Pledge": "40,543", "2023_Plate_Pledge": "41,906", "2024_Plate_Pledge": "47,184"}}, {"type": "Feature", "geometry": {"type": "Point", "coordinates": [-75.458019, 43.21309]}, "properties": {"ParishUEID": "2242-2885", "Diocese": "Central New York", "Name": "Zion Episcopal Church", "City": "Rome", "State": "New York", "County": "Oneida", "Address": "140 W Liberty St, Rome, NY 13440", "Website": "http://www.zionrome.org/", "latitude": 43.21308999, "longitude": -75.45801873, "Address_Search": "Zion Episcopal Church, 140 W Liberty St, Rome, NY 13440", "Avg_Attendance": 29.2, "Avg_Plate_Pledge": 62345.6, "2020_Attendance": 29.0, "2021_Attendance": 19.0, "2022_Attendance": 26.0, "2023_Attendance": 30.0, "2024_Attendance": 42.0, "2020_Plate_Pledge": "55,262", "2021_Plate_Pledge": "59,557", "2022_Plate_Pledge": "67,701", "2023_Plate_Pledge": "65,391", "2024_Plate_Pledge": "63,817"}}, {"type": "Feature", "geometry": {"type": "Point", "coordinates": [-75.748591, 43.335899]}, "properties": {"ParishUEID": "3184-9003", "Diocese": "Central New York", "Name": "Trinity Episcopal Church", "City": "Camden", "State": "New York", "County": "Oneida", "Address": "98 Main St, Camden, NY 13316", "Website": "https://www.facebook.com/trinitycamdenny/", "latitude": 43.33589881, "longitude": -75.74859118, "Address_Search": "Trinity Episcopal Church, 98 Main St, Camden, NY 13316", "Avg_Attendance": 9.2, "Avg_Plate_Pledge": 36566.2, "2020_Attendance": 13.0, "2021_Attendance": 10.0, "2022_Attendance": 10.0, "2023_Attendance": 7.0, "2024_Attendance": 6.0, "2020_Plate_Pledge": "30,605", "2021_Plate_Pledge": "27,683", "2022_Plate_Pledge": "33,318", "2023_Plate_Pledge": "31,225", "2024_Plate_Pledge": "60,000"}}, {"type": "Feature", "geometry": {"type": "Point", "coordinates": [-76.007414, 43.247877]}, "properties": {"ParishUEID": "9727-1837", "Diocese": "Central New York", "Name": "Trinity Episcopal Church", "City": "Constantia", "State": "New York", "County": "Oswego", "Address": "1492 NY-49, Constantia, NY 13044", "Website": "https://www.facebook.com/p/Trinity-Episcopal-Constantia-100068906935317/", "latitude": 43.24787666, "longitude": -76.00741379, "Address_Search": "Trinity Episcopal Church, 1492 NY-49, Constantia, NY 13044", "Avg_Attendance": 10.0, "Avg_Plate_Pledge": 4038.0, "2020_Attendance": 8.0, "2021_Attendance": 8.0, "2022_Attendance": 10.0, "2023_Attendance": 13.0, "2024_Attendance": 11.0, "2020_Plate_Pledge": "2,697", "2021_Plate_Pledge": "2,697", "2022_Plate_Pledge": "4,719", "2023_Plate_Pledge": "4,756", "2024_Plate_Pledge": "5,321"}}, {"type": "Feature", "geometry": {"type": "Point", "coordinates": [-76.337303, 43.165741]}, "properties": {"ParishUEID": "9770-7327", "Diocese": "Central New York", "Name": "Grace Episcopal Church", "City": "Baldwinsville", "State": "New York", "County": "Onondaga", "Address": "110 Oswego St, Baldwinsville, NY 13027", "Website": "http://graceepiscopalbaldwinsville.org/", "latitude": 43.16574141, "longitude": -76.33730293, "Address_Search": "Grace Episcopal Church, 110 Oswego St, Baldwinsville, NY 13027", "Avg_Attendance": 33.4, "Avg_Plate_Pledge": 105502.2, "2020_Attendance": 51.0, "2021_Attendance": 19.0, "2022_Attendance": 27.0, "2023_Attendance": 34.0, "2024_Attendance": 36.0, "2020_Plate_Pledge": "124,239", "2021_Plate_Pledge": "114,549", "2022_Plate_Pledge": "88,800", "2023_Plate_Pledge": "100,611", "2024_Plate_Pledge": "99,312"}}, {"type": "Feature", "geometry": {"type": "Point", "coordinates": [-76.4155, 43.320358]}, "properties": {"ParishUEID": "8118-7734", "Diocese": "Central New York", "Name": "All Saints Episcopal Church", "City": "Fulton", "State": "New York", "County": "Oswego", "Address": "153 S 1st St, Fulton, NY 13069", "Website": "http://www.allsaintsfulton.org/", "latitude": 43.32035791, "longitude": -76.41550046, "Address_Search": "All Saints Episcopal Church, 153 S 1st St, Fulton, NY 13069", "Avg_Attendance": 18.8, "Avg_Plate_Pledge": 40556.4, "2020_Attendance": 16.0, "2021_Attendance": 18.0, "2022_Attendance": 17.0, "2023_Attendance": 18.0, "2024_Attendance": 25.0, "2020_Plate_Pledge": "34499", "2021_Plate_Pledge": "41508", "2022_Plate_Pledge": "36604", "2023_Plate_Pledge": "45465", "2024_Plate_Pledge": "44706"}}, {"type": "Feature", "geometry": {"type": "Point", "coordinates": [-76.51615, 43.455958]}, "properties": {"ParishUEID": "9670-7955", "Diocese": "Central New York", "Name": "Church of the Resurrection", "City": "Oswego", "State": "New York", "County": "Oswego", "Address": "120 W 5th St, Oswego, NY 13126", "Website": "http://www.resoswego.org", "latitude": 43.45595754, "longitude": -76.51615027, "Address_Search": "Church of the Resurrection, 120 W 5th St, Oswego, NY 13126", "Avg_Attendance": 37.2, "Avg_Plate_Pledge": 120448.4, "2020_Attendance": 45.0, "2021_Attendance": 26.0, "2022_Attendance": 35.0, "2023_Attendance": 40.0, "2024_Attendance": 40.0, "2020_Plate_Pledge": "115,070", "2021_Plate_Pledge": "111,612", "2022_Plate_Pledge": "120,928", "2023_Plate_Pledge": "125,657", "2024_Plate_Pledge": "128,975"}}, {"type": "Feature", "geometry": {"type": "Point", "coordinates": [-76.12932, 43.568013]}, "properties": {"ParishUEID": "9878-9886", "Diocese": "Central New York", "Name": "St James' Episcopal Church", "City": "Pulaski", "State": "New York", "County": "Oswego", "Address": "24 Lake St, Pulaski, NY 13142", "Website": "https://www.stjameschurchpulaski.org", "latitude": 43.56801334, "longitude": -76.12932005, "Address_Search": "St James Episcopal Church, 24 Lake St, Pulaski, NY 13142", "Avg_Attendance": 29.8, "Avg_Plate_Pledge": 42818.6, "2020_Attendance": 28.0, "2021_Attendance": 24.0, "2022_Attendance": 30.0, "2023_Attendance": 34.0, "2024_Attendance": 33.0, "2020_Plate_Pledge": "29,463", "2021_Plate_Pledge": "42,118", "2022_Plate_Pledge": "42,740", "2023_Plate_Pledge": "47,181", "2024_Plate_Pledge": "52,591"}}, {"type": "Feature", "geometry": {"type": "Point", "coordinates": [-75.349384, 43.5811]}, "properties": {"ParishUEID": "7348-0519", "Diocese": "Central New York", "Name": "St Mark's Episcopal Church", "City": "Port Leyden", "State": "New York", "County": "Lewis", "Address": "6988 West Main Street, Port Leyden, NY 13433", "Website": "https://www.episcopalchurch.org/", "latitude": 43.5811, "longitude": -75.34938351, "Address_Search": "St Marks Episcopal Church, 6988 West Main Street, Port Leyden, NY 13433", "Avg_Attendance": 8.4, "Avg_Plate_Pledge": 14144.8, "2020_Attendance": 10.0, "2021_Attendance": 7.0, "2022_Attendance": 9.0, "2023_Attendance": 8.0, "2024_Attendance": 8.0, "2020_Plate_Pledge": "2,863", "2021_Plate_Pledge": "2,803", "2022_Plate_Pledge": "2,980", "2023_Plate_Pledge": "3,205", "2024_Plate_Pledge": "58,873"}}, {"type": "Feature", "geometry": {"type": "Point", "coordinates": [-76.019707, 43.809612]}, "properties": {"ParishUEID": "4484-4637", "Diocese": "Central New York", "Name": "Emmanuel Episcopal Church", "City": "Adams", "State": "New York", "County": "Jefferson", "Address": "40 E Church St, Adams, NY 13605", "Website": "https://emmanueladams.org/", "latitude": 43.80961199, "longitude": -76.01970663, "Address_Search": "Emmanuel Episcopal Church, 40 E Church St, Adams, NY 13605", "Avg_Attendance": 28.8, "Avg_Plate_Pledge": 68353.2, "2020_Attendance": 27.0, "2021_Attendance": 25.0, "2022_Attendance": 28.0, "2023_Attendance": 32.0, "2024_Attendance": 32.0, "2020_Plate_Pledge": "43,772", "2021_Plate_Pledge": "62,549", "2022_Plate_Pledge": "70,096", "2023_Plate_Pledge": "82,864", "2024_Plate_Pledge": "82,485"}}, {"type": "Feature", "geometry": {"type": "Point", "coordinates": [-75.671776, 43.89423]}, "properties": {"ParishUEID": "6977-5948", "Diocese": "Central New York", "Name": "Grace Church", "City": "Copenhagen", "State": "New York", "County": "Lewis", "Address": "2939 Cataract St, Copenhagen, NY 13626", "Website": "https://www.facebook.com/gracecopenhagen", "latitude": 43.8942302, "longitude": -75.67177637, "Address_Search": "Grace Church, 2939 Cataract St, Copenhagen, NY 13626", "Avg_Attendance": 11.0, "Avg_Plate_Pledge": 4966.6, "2020_Attendance": 16.0, "2021_Attendance": 13.0, "2022_Attendance": 9.0, "2023_Attendance": 7.0, "2024_Attendance": 10.0, "2020_Plate_Pledge": "4,484", "2021_Plate_Pledge": "7,725", "2022_Plate_Pledge": "2,778", "2023_Plate_Pledge": "2,971", "2024_Plate_Pledge": "6,875"}}, {"type": "Feature", "geometry": {"type": "Point", "coordinates": [-75.608279, 43.979465]}, "properties": {"ParishUEID": "9430-0688", "Diocese": "Central New York", "Name": "Grace Episcopal Church", "City": "Carthage", "State": "New York", "County": "Jefferson", "Address": "421 State St, Carthage, NY 13619", "Website": "https://www.facebook.com/p/Grace-Episcopal-Church-Carthage-NY-100069659935814/", "latitude": 43.97946505, "longitude": -75.60827854, "Address_Search": "Grace Episcopal Church, 421 State St, Carthage, NY 13619", "Avg_Attendance": 11.2, "Avg_Plate_Pledge": 14747.8, "2020_Attendance": 13.0, "2021_Attendance": 12.0, "2022_Attendance": 12.0, "2023_Attendance": 11.0, "2024_Attendance": 8.0, "2020_Plate_Pledge": "18,336", "2021_Plate_Pledge": "13,714", "2022_Plate_Pledge": "13,703", "2023_Plate_Pledge": "14,405", "2024_Plate_Pledge": "13,581"}}, {"type": "Feature", "geometry": {"type": "Point", "coordinates": [-75.799864, 44.007326]}, "properties": {"ParishUEID": "3182-7678", "Diocese": "Central New York", "Name": "St John's Episcopal Church", "City": "Black River", "State": "New York", "County": "Jefferson", "Address": "143 W Remington St, Black River, NY 13612", "Website": "https://episcopalnny.wixsite.com/semnny/our-parishes", "latitude": 44.00732598, "longitude": -75.79986358, "Address_Search": "St Johns Episcopal Church, 143 W Remington St, Black River, NY 13612", "Avg_Attendance": 10.4, "Avg_Plate_Pledge": 19053.0, "2020_Attendance": 11.0, "2021_Attendance": 9.0, "2022_Attendance": 13.0, "2023_Attendance": 11.0, "2024_Attendance": 8.0, "2020_Plate_Pledge": "19,595", "2021_Plate_Pledge": "20,722", "2022_Plate_Pledge": "20,382", "2023_Plate_Pledge": "18,391", "2024_Plate_Pledge": "16,175"}}, {"type": "Feature", "geometry": {"type": "Point", "coordinates": [-75.914913, 43.973386]}, "properties": {"ParishUEID": "7662-1671", "Diocese": "Central New York", "Name": "Trinity Episcopal Church", "City": "Watertown", "State": "New York", "County": "Jefferson", "Address": "227 Sherman St, Watertown, NY 13601", "Website": "http://trinitywatertown.org", "latitude": 43.97338638, "longitude": -75.91491319, "Address_Search": "Trinity Episcopal Church, 227 Sherman St, Watertown, NY 13601", "Avg_Attendance": 50.4, "Avg_Plate_Pledge": 170877.2, "2020_Attendance": 62.0, "2021_Attendance": 42.0, "2022_Attendance": 45.0, "2023_Attendance": 48.0, "2024_Attendance": 55.0, "2020_Plate_Pledge": "160,928", "2021_Plate_Pledge": "169,004", "2022_Plate_Pledge": "177,659", "2023_Plate_Pledge": "171,084", "2024_Plate_Pledge": "175,711"}}, {"type": "Feature", "geometry": {"type": "Point", "coordinates": [-76.335358, 44.124839]}, "properties": {"ParishUEID": "2514-9816", "Diocese": "Central New York", "Name": "St John's Church", "City": "Cape Vincent", "State": "New York", "County": "Jefferson", "Address": "352 S Market St, Cape Vincent, NY 13618", "Website": "https://episcopalriverparishes.org", "latitude": 44.12483894, "longitude": -76.33535818, "Address_Search": "St Johns Church, 352 S Market St, Cape Vincent, NY 13618", "Avg_Attendance": 20.2, "Avg_Plate_Pledge": 32768.2, "2020_Attendance": 16.0, "2021_Attendance": 18.0, "2022_Attendance": 21.0, "2023_Attendance": 25.0, "2024_Attendance": 21.0, "2020_Plate_Pledge": "22,947", "2021_Plate_Pledge": "35,266", "2022_Plate_Pledge": "30,701", "2023_Plate_Pledge": "39,030", "2024_Plate_Pledge": "35,897"}}, {"type": "Feature", "geometry": {"type": "Point", "coordinates": [-76.087067, 44.241779]}, "properties": {"ParishUEID": "5618-1696", "Diocese": "Central New York", "Name": "Christ Episcopal Church", "City": "Clayton", "State": "New York", "County": "Jefferson", "Address": "235 John Street, Clayton, NY 13624", "Website": "https://www.episcopalriverparishes.org", "latitude": 44.2417786, "longitude": -76.08706688, "Address_Search": "Christ Episcopal Church, 235 John Street, Clayton, NY 13624", "Avg_Attendance": 35.8, "Avg_Plate_Pledge": 70827.8, "2020_Attendance": 46.0, "2021_Attendance": 28.0, "2022_Attendance": 40.0, "2023_Attendance": 35.0, "2024_Attendance": 30.0, "2020_Plate_Pledge": "75,066", "2021_Plate_Pledge": "80,189", "2022_Plate_Pledge": "51,534", "2023_Plate_Pledge": "69,175", "2024_Plate_Pledge": "78,175"}}, {"type": "Feature", "geometry": {"type": "Point", "coordinates": [-75.921207, 44.336426]}, "properties": {"ParishUEID": "8026-8071", "Diocese": "Central New York", "Name": "Church of St Lawrence", "City": "Alexandria Bay", "State": "New York", "County": "Jefferson", "Address": "7 Fuller St Box 211, Alexandria Bay, NY 13607", "Website": "https://www.episcopalriverparishes.org/", "latitude": 44.33642637, "longitude": -75.92120663, "Address_Search": "Church of St Lawrence, 7 Fuller St Box 211, Alexandria Bay, NY 13607", "Avg_Attendance": 17.4, "Avg_Plate_Pledge": 11948.4, "2020_Attendance": 7.0, "2021_Attendance": 17.0, "2022_Attendance": 21.0, "2023_Attendance": 21.0, "2024_Attendance": 21.0, "2020_Plate_Pledge": "12,620", "2021_Plate_Pledge": "14,719", "2022_Plate_Pledge": "12,462", "2023_Plate_Pledge": "12,160", "2024_Plate_Pledge": "7,781"}}]}